[{"CCSDS_OMM_VERS":"3.0","COMMENT":"GENERATED VIA SPACE-TRACK.ORG API","CREATION_DATE":"2026-05-30T07:49:03","ORIGINATOR":"18 SPCS","OBJECT_NAME":"NAVSTAR 83 (USA 440)","OBJECT_ID":"2024-242A","CENTER_NAME":"EARTH","REF_FRAME":"TEME","TIME_SYSTEM":"UTC","MEAN_ELEMENT_THEORY":"SGP4","EPOCH":"2026-05-29T21:29:51.258624","MEAN_MOTION":"2.00571550","ECCENTRICITY":"0.00173524","INCLINATION":"54.8579","RA_OF_ASC_NODE":"334.9224","ARG_OF_PERICENTER":"4.2820","MEAN_ANOMALY":"356.8911","EPHEMERIS_TYPE":"0","CLASSIFICATION_TYPE":"U","NORAD_CAT_ID":"62339","ELEMENT_SET_NO":"999","REV_AT_EPOCH":"1089","BSTAR":"0.00000000000000","MEAN_MOTION_DOT":"-0.00000095","MEAN_MOTION_DDOT":"0.0000000000000","SEMIMAJOR_AXIS":"26559.646","PERIOD":"717.948","APOAPSIS":"20227.599","PERIAPSIS":"20135.424","OBJECT_TYPE":"PAYLOAD","RCS_SIZE":"LARGE","COUNTRY_CODE":"US","LAUNCH_DATE":"2024-12-17","SITE":"AFETR","DECAY_DATE":null,"FILE":"5222214","GP_ID":"325987443","TLE_LINE0":"0 NAVSTAR 83 (USA 440)","TLE_LINE1":"1 62339U 24242A   26149.89573216 -.00000095  00000-0  00000-0 0  9995","TLE_LINE2":"2 62339  54.8579 334.9224 0017352   4.2820 356.8911  2.00571550 10890"},{"CCSDS_OMM_VERS":"3.0","COMMENT":"GENERATED VIA SPACE-TRACK.ORG API","CREATION_DATE":"2026-05-30T21:02:43","ORIGINATOR":"18 SPCS","OBJECT_NAME":"NAVSTAR 83 (USA 440)","OBJECT_ID":"2024-242A","CENTER_NAME":"EARTH","REF_FRAME":"TEME","TIME_SYSTEM":"UTC","MEAN_ELEMENT_THEORY":"SGP4","EPOCH":"2026-05-30T03:28:40.362240","MEAN_MOTION":"2.00571543","ECCENTRICITY":"0.00173641","INCLINATION":"54.8570","RA_OF_ASC_NODE":"334.9124","ARG_OF_PERICENTER":"4.2760","MEAN_ANOMALY":"176.8231","EPHEMERIS_TYPE":"0","CLASSIFICATION_TYPE":"U","NORAD_CAT_ID":"62339","ELEMENT_SET_NO":"999","REV_AT_EPOCH":"1089","BSTAR":"0.00000000000000","MEAN_MOTION_DOT":"-0.00000095","MEAN_MOTION_DDOT":"0.0000000000000","SEMIMAJOR_AXIS":"26559.647","PERIOD":"717.948","APOAPSIS":"20227.630","PERIAPSIS":"20135.393","OBJECT_TYPE":"PAYLOAD","RCS_SIZE":"LARGE","COUNTRY_CODE":"US","LAUNCH_DATE":"2024-12-17","SITE":"AFETR","DECAY_DATE":null,"FILE":"5223167","GP_ID":"326107227","TLE_LINE0":"0 NAVSTAR 83 (USA 440)","TLE_LINE1":"1 62339U 24242A   26150.14491160 -.00000095  00000-0  00000-0 0  9992","TLE_LINE2":"2 62339  54.8570 334.9124 0017364   4.2760 176.8231  2.00571543 10893"},{"CCSDS_OMM_VERS":"3.0","COMMENT":"GENERATED VIA SPACE-TRACK.ORG API","CREATION_DATE":"2026-05-30T17:06:24","ORIGINATOR":"18 SPCS","OBJECT_NAME":"NAVSTAR 83 (USA 440)","OBJECT_ID":"2024-242A","CENTER_NAME":"EARTH","REF_FRAME":"TEME","TIME_SYSTEM":"UTC","MEAN_ELEMENT_THEORY":"SGP4","EPOCH":"2026-05-30T03:28:40.362240","MEAN_MOTION":"2.00571543","ECCENTRICITY":"0.00173640","INCLINATION":"54.8570","RA_OF_ASC_NODE":"334.9124","ARG_OF_PERICENTER":"4.2760","MEAN_ANOMALY":"176.8231","EPHEMERIS_TYPE":"0","CLASSIFICATION_TYPE":"U","NORAD_CAT_ID":"62339","ELEMENT_SET_NO":"999","REV_AT_EPOCH":"1089","BSTAR":"0.00000000000000","MEAN_MOTION_DOT":"-0.00000095","MEAN_MOTION_DDOT":"0.0000000000000","SEMIMAJOR_AXIS":"26559.647","PERIOD":"717.948","APOAPSIS":"20227.630","PERIAPSIS":"20135.394","OBJECT_TYPE":"PAYLOAD","RCS_SIZE":"LARGE","COUNTRY_CODE":"US","LAUNCH_DATE":"2024-12-17","SITE":"AFETR","DECAY_DATE":null,"FILE":"5223035","GP_ID":"326066783","TLE_LINE0":"0 NAVSTAR 83 (USA 440)","TLE_LINE1":"1 62339U 24242A   26150.14491160 -.00000095  00000-0  00000+0 0  9991","TLE_LINE2":"2 62339  54.8570 334.9124 0017364   4.2760 176.8231  2.00571543 10893"},{"CCSDS_OMM_VERS":"3.0","COMMENT":"GENERATED VIA SPACE-TRACK.ORG API","CREATION_DATE":"2026-05-31T06:56:47","ORIGINATOR":"18 SPCS","OBJECT_NAME":"NAVSTAR 83 (USA 440)","OBJECT_ID":"2024-242A","CENTER_NAME":"EARTH","REF_FRAME":"TEME","TIME_SYSTEM":"UTC","MEAN_ELEMENT_THEORY":"SGP4","EPOCH":"2026-05-31T03:48:43.491744","MEAN_MOTION":"2.00571579","ECCENTRICITY":"0.00173740","INCLINATION":"54.8567","RA_OF_ASC_NODE":"334.8715","ARG_OF_PERICENTER":"4.2937","MEAN_ANOMALY":"188.9382","EPHEMERIS_TYPE":"0","CLASSIFICATION_TYPE":"U","NORAD_CAT_ID":"62339","ELEMENT_SET_NO":"999","REV_AT_EPOCH":"1091","BSTAR":"0.00000000000000","MEAN_MOTION_DOT":"-0.00000093","MEAN_MOTION_DDOT":"0.0000000000000","SEMIMAJOR_AXIS":"26559.644","PERIOD":"717.948","APOAPSIS":"20227.653","PERIAPSIS":"20135.364","OBJECT_TYPE":"PAYLOAD","RCS_SIZE":"LARGE","COUNTRY_CODE":"US","LAUNCH_DATE":"2024-12-17","SITE":"AFETR","DECAY_DATE":null,"FILE":"5224581","GP_ID":"326287192","TLE_LINE0":"0 NAVSTAR 83 (USA 440)","TLE_LINE1":"1 62339U 24242A   26151.15883671 -.00000093  00000-0  00000+0 0  9993","TLE_LINE2":"2 62339  54.8567 334.8715 0017374   4.2937 188.9382  2.00571579 10914"},{"CCSDS_OMM_VERS":"3.0","COMMENT":"GENERATED VIA SPACE-TRACK.ORG API","CREATION_DATE":"2026-05-31T16:26:43","ORIGINATOR":"18 SPCS","OBJECT_NAME":"NAVSTAR 83 (USA 440)","OBJECT_ID":"2024-242A","CENTER_NAME":"EARTH","REF_FRAME":"TEME","TIME_SYSTEM":"UTC","MEAN_ELEMENT_THEORY":"SGP4","EPOCH":"2026-05-31T09:37:47.377056","MEAN_MOTION":"2.00571587","ECCENTRICITY":"0.00173800","INCLINATION":"54.8565","RA_OF_ASC_NODE":"334.8617","ARG_OF_PERICENTER":"4.3480","MEAN_ANOMALY":"3.9198","EPHEMERIS_TYPE":"0","CLASSIFICATION_TYPE":"U","NORAD_CAT_ID":"62339","ELEMENT_SET_NO":"999","REV_AT_EPOCH":"1092","BSTAR":"0.00000000000000","MEAN_MOTION_DOT":"-0.00000092","MEAN_MOTION_DDOT":"0.0000000000000","SEMIMAJOR_AXIS":"26559.643","PERIOD":"717.948","APOAPSIS":"20227.669","PERIAPSIS":"20135.347","OBJECT_TYPE":"PAYLOAD","RCS_SIZE":"LARGE","COUNTRY_CODE":"US","LAUNCH_DATE":"2024-12-17","SITE":"AFETR","DECAY_DATE":null,"FILE":"5225393","GP_ID":"326361288","TLE_LINE0":"0 NAVSTAR 83 (USA 440)","TLE_LINE1":"1 62339U 24242A   26151.40124279 -.00000092  00000-0  00000+0 0  9992","TLE_LINE2":"2 62339  54.8565 334.8617 0017380   4.3480   3.9198  2.00571587 10925"},{"CCSDS_OMM_VERS":"3.0","COMMENT":"GENERATED VIA SPACE-TRACK.ORG API","CREATION_DATE":"2026-06-01T10:22:25","ORIGINATOR":"18 SPCS","OBJECT_NAME":"NAVSTAR 83 (USA 440)","OBJECT_ID":"2024-242A","CENTER_NAME":"EARTH","REF_FRAME":"TEME","TIME_SYSTEM":"UTC","MEAN_ELEMENT_THEORY":"SGP4","EPOCH":"2026-05-31T21:12:24.087168","MEAN_MOTION":"2.00571600","ECCENTRICITY":"0.00173813","INCLINATION":"54.8562","RA_OF_ASC_NODE":"334.8422","ARG_OF_PERICENTER":"4.3633","MEAN_ANOMALY":"352.2127","EPHEMERIS_TYPE":"0","CLASSIFICATION_TYPE":"U","NORAD_CAT_ID":"62339","ELEMENT_SET_NO":"999","REV_AT_EPOCH":"1092","BSTAR":"0.00000000000000","MEAN_MOTION_DOT":"-0.00000091","MEAN_MOTION_DDOT":"0.0000000000000","SEMIMAJOR_AXIS":"26559.642","PERIOD":"717.948","APOAPSIS":"20227.671","PERIAPSIS":"20135.343","OBJECT_TYPE":"PAYLOAD","RCS_SIZE":"LARGE","COUNTRY_CODE":"US","LAUNCH_DATE":"2024-12-17","SITE":"AFETR","DECAY_DATE":null,"FILE":"5227124","GP_ID":"326551825","TLE_LINE0":"0 NAVSTAR 83 (USA 440)","TLE_LINE1":"1 62339U 24242A   26151.88361212 -.00000091  00000-0  00000-0 0  9994","TLE_LINE2":"2 62339  54.8562 334.8422 0017381   4.3633 352.2127  2.00571600 10925"},{"CCSDS_OMM_VERS":"3.0","COMMENT":"GENERATED VIA SPACE-TRACK.ORG API","CREATION_DATE":"2026-06-01T06:57:18","ORIGINATOR":"18 SPCS","OBJECT_NAME":"NAVSTAR 83 (USA 440)","OBJECT_ID":"2024-242A","CENTER_NAME":"EARTH","REF_FRAME":"TEME","TIME_SYSTEM":"UTC","MEAN_ELEMENT_THEORY":"SGP4","EPOCH":"2026-05-31T21:12:24.087168","MEAN_MOTION":"2.00571600","ECCENTRICITY":"0.00173810","INCLINATION":"54.8562","RA_OF_ASC_NODE":"334.8422","ARG_OF_PERICENTER":"4.3633","MEAN_ANOMALY":"352.2127","EPHEMERIS_TYPE":"0","CLASSIFICATION_TYPE":"U","NORAD_CAT_ID":"62339","ELEMENT_SET_NO":"999","REV_AT_EPOCH":"1092","BSTAR":"0.00000000000000","MEAN_MOTION_DOT":"-0.00000091","MEAN_MOTION_DDOT":"0.0000000000000","SEMIMAJOR_AXIS":"26559.642","PERIOD":"717.948","APOAPSIS":"20227.670","PERIAPSIS":"20135.344","OBJECT_TYPE":"PAYLOAD","RCS_SIZE":"LARGE","COUNTRY_CODE":"US","LAUNCH_DATE":"2024-12-17","SITE":"AFETR","DECAY_DATE":null,"FILE":"5226983","GP_ID":"326512736","TLE_LINE0":"0 NAVSTAR 83 (USA 440)","TLE_LINE1":"1 62339U 24242A   26151.88361212 -.00000091  00000-0  00000+0 0  9993","TLE_LINE2":"2 62339  54.8562 334.8422 0017381   4.3633 352.2127  2.00571600 10925"},{"CCSDS_OMM_VERS":"3.0","COMMENT":"GENERATED VIA SPACE-TRACK.ORG API","CREATION_DATE":"2026-06-01T18:19:01","ORIGINATOR":"18 SPCS","OBJECT_NAME":"NAVSTAR 83 (USA 440)","OBJECT_ID":"2024-242A","CENTER_NAME":"EARTH","REF_FRAME":"TEME","TIME_SYSTEM":"UTC","MEAN_ELEMENT_THEORY":"SGP4","EPOCH":"2026-06-01T09:28:55.984224","MEAN_MOTION":"2.00571608","ECCENTRICITY":"0.00173835","INCLINATION":"54.8561","RA_OF_ASC_NODE":"334.8215","ARG_OF_PERICENTER":"4.3778","MEAN_ANOMALY":"1.5269","EPHEMERIS_TYPE":"0","CLASSIFICATION_TYPE":"U","NORAD_CAT_ID":"62339","ELEMENT_SET_NO":"999","REV_AT_EPOCH":"1094","BSTAR":"0.00000000000000","MEAN_MOTION_DOT":"-0.00000089","MEAN_MOTION_DDOT":"0.0000000000000","SEMIMAJOR_AXIS":"26559.641","PERIOD":"717.948","APOAPSIS":"20227.676","PERIAPSIS":"20135.336","OBJECT_TYPE":"PAYLOAD","RCS_SIZE":"LARGE","COUNTRY_CODE":"US","LAUNCH_DATE":"2024-12-17","SITE":"AFETR","DECAY_DATE":null,"FILE":"5227192","GP_ID":"326586766","TLE_LINE0":"0 NAVSTAR 83 (USA 440)","TLE_LINE1":"1 62339U 24242A   26152.39509241 -.00000089  00000-0  00000-0 0  9994","TLE_LINE2":"2 62339  54.8561 334.8215 0017384   4.3778   1.5269  2.00571608 10948"}]